#aV2011  6 26  0  0   .00000000      96 DD+AD WGS84 FIT  NGA
## 1642       .00000000   900.00000000 55738  .0000000000000
+   32     1  2  3  4  5  6  7  8  9 10 11 12 13 14 15 16 17
+         18 19 20 21 22 23 24 25 26 27 28 29 30 31 32  0  0
+          0  0  0  0  0  0  0  0  0  0  0  0  0  0  0  0  0
+          0  0  0  0  0  0  0  0  0  0  0  0  0  0  0  0  0
+          0  0  0  0  0  0  0  0  0  0  0  0  0  0  0  0  0
++         0  0  0  0  0  0  0  0  0  0  0  0  0  0  0  0  0
++         0  0  0  0  0  0  0  0  0  0  0  0  0  0  0  0  0
++         0  0  0  0  0  0  0  0  0  0  0  0  0  0  0  0  0
++         0  0  0  0  0  0  0  0  0  0  0  0  0  0  0  0  0
++         0  0  0  0  0  0  0  0  0  0  0  0  0  0  0  0  0
%c cc cc ccc ccc cccc cccc cccc cccc ccccc ccccc ccccc ccccc
%c cc cc ccc ccc cccc cccc cccc cccc ccccc ccccc ccccc ccccc
%f  0.0000000  0.000000000  0.00000000000  0.000000000000000
%f  0.0000000  0.000000000  0.00000000000  0.000000000000000
%i    0    0    0    0      0      0      0      0         0
%i    0    0    0    0      0      0      0      0         0
/*      NGA, ST. LOUIS,MO.                                  
/*   EPHEMERIS COMPUTED FROM  3 DAYS OF DATA                
/* CCCCCCCCCCCCCCCCCCCCCCCCCCCCCCCCCCCCCCCCCCCCCCCCCCCCCCCCC
/* CCCCCCCCCCCCCCCCCCCCCCCCCCCCCCCCCCCCCCCCCCCCCCCCCCCCCCCCC
*  2011  6 26 22 15   .00000000                                                 
P  1 -14769.169675  13948.414892 -17455.160079     93.823385                    
V  1 -21548.896498    540.100653  19102.502122       .019451                    
P  2 -18164.146265   4904.073578 -18498.910097    343.720220                    
V  2   9709.766993 -21884.517715 -15776.403196       .019091                    
P  3  19157.149254   3022.798720  17854.444325    734.051387                    
V  3  12786.757152  19843.880959 -16371.488993       .051647                    
P  4 -12747.449120  -9469.163476 -21482.927227    155.423478                    
V  4  13721.976407 -23138.304134   2420.697568       .108275                    
P  5 -26475.023031   1694.182229   2166.284533   -180.688317                    
V  5  -2778.792650  -2912.088925 -31379.168995      -.055571                    
P  6  19606.941314   7810.302547  16417.883933    119.078542                    
V  6   9510.609592  18333.584798 -20032.253856      -.828462                    
P  7   3134.447171 -22837.525599  12995.852272     15.731048                    
V  7  10151.823680 -13247.515482 -25945.035199       .013831                    
P  8  -3882.565095 -16999.696108  19871.877248      8.315897                    
V  8  15233.273663 -20198.118775 -14858.519054       .001175                    
P  9 -14846.580143  21544.203747   4023.310965     88.967594                    
V  9    916.147720  -6107.339116  31705.452931       .023406                    
P 10 -21389.686873  -9679.798061 -12985.229707     -4.891593                    
V 10  16063.499345  -1952.556799 -25058.858755      -.010222                    
P 11  12939.033813 -21224.826652   8542.030630   -162.949001                    
V 11   1793.973040  12433.262429  27491.175657      -.032675                    
P 12 -15635.704079  11842.437334 -17809.301858      5.170554                    
V 12 -22652.200305  -1779.375713  18859.012930       .025848                    
P 13  -2749.644600 -23684.864462 -11768.781635    263.783120                    
V 13   7806.844755  12564.531125 -27512.342628      -.016935                    
P 14  14906.225569  21362.820447  -5410.881153    158.305968                    
V 14   1434.688409   7161.767296  31153.951069       .021589                    
P 15 -10865.830753  11492.765074  21324.772066   -119.238002                    
V 15 -14601.303762 -22868.583067   5048.633366       .022360                    
P 16  26629.329744   -678.544320   2237.349595   -181.621935                    
V 16   2724.508117   2121.254376 -31738.885733      -.024838                    
P 17 -15733.161569 -20767.938393  -5604.751003    183.254417                    
V 17  -1225.297600  -7587.294315  30556.378993      -.004676                    
P 18   6446.774940  15576.375279  20914.837384    144.228455                    
V 18 -25867.118458    379.691759   7432.985516       .019379                    
P 19  13419.152367  -7277.070527  21718.678300   -155.659422                    
V 19  12082.924954  24831.488526   1206.801287      -.040872                    
P 20  12499.651105 -14355.444644 -18642.913315     50.205487                    
V 20  23551.936682    816.701500  15339.458770       .003128                    
P 21    136.777386  21905.733123  15005.950104   -153.877601                    
V 21 -11962.634391  14618.105438 -22462.244469      -.025609                    
P 22  18725.318008  11559.151364  15127.950810    147.018234                    
V 22 -18980.064546   2244.514787  21921.450481      -.004862                    
P 23   5441.798000 -17388.864523 -19192.727159    296.267126                    
V 23  13368.483748  20573.717177 -15192.432801      -.028210                    
P 24  14907.959138 -21767.477516    985.585733    401.787234                    
V 24   2273.372662   2898.666114  31622.872223       .030538                    
P 25  -2144.981043  15117.316141 -21754.419502      6.037927                    
V 25 -27556.345277    207.147853   2891.105547       .019890                    
P 26 -16140.663711  -2332.286488  20462.057738    -72.616167                    
V 26 -11285.328697 -24736.196490 -11014.680666      -.116549                    
P 27 -17151.624923  17129.484508  11090.509501    278.917492                    
V 27   4270.809714 -12643.156433  28103.046241       .036882                    
P 28 -15297.969717 -12880.624179  18124.957806     47.633977                    
V 28  21873.491783   -245.055421  18585.181835       .028094                    
P 29   2146.071652  23120.991853 -12862.462109    218.425907                    
V 29  -9700.166949 -13456.180683 -25607.180750       .031263                    
P 30  25040.293581   4495.822688  -8086.157321     16.368315                    
V 30  -9572.832321   2953.937323 -29504.715865       .050411                    
P 31  13329.226745   6322.995154 -21894.438494    101.754985                    
V 31 -14258.910247  24348.376816  -1429.395315       .059241                    
P 32  20294.664691  -8472.724483 -14308.829653   -280.687583                    
V 32  18548.707152   4161.751305  23806.133125      -.070610                    
EOF
